*******************************************************************************
 Revised: Jun 17, 2016            Rhea  / (Saturn)                          605
                        http://ssd.jpl.nasa.gov/?sat_phys_par
                         http://ssd.jpl.nasa.gov/?sat_elem

 SATELLITE PHYSICAL PROPERTIES:
  Mean Radius (km)        = 764.5  +- 2     Density (g/cm^3)  =  1.233 +- 0.010
  Mass (10^19 kg)         = 230.9           Geometric Albedo  =  0.6
  GM (km^3/s^2)           = 153.94 +- 0.16  V(1,0)            = +0.1

 SATELLITE ORBITAL DATA (mean values referred to local Laplace plane):
  Semi-major axis, a (km) = 527.07(10^3)    Orbital period    = 4.518 d
  Eccentricity, e         = 0.001           Rotational period = Synchronous
  Inclination, i  (deg)   = 0.331
*******************************************************************************
 
 
*******************************************************************************
Ephemeris / WWW_USER Fri Jul 21 11:04:20 2017 Pasadena, USA      / Horizons    
*******************************************************************************
Target body name: Rhea (605)                      {source: sat389}
Center body name: Sun (10)                        {source: sat389}
Center-site name: BODY CENTER
*******************************************************************************
Start time      : A.D. 2017-Jul-10 00:00:00.0000 TDB
Stop  time      : A.D. 2020-Aug-13 00:00:00.0000 TDB
Step-size       : 1440 minutes
*******************************************************************************
Center geodetic : 0.00000000,0.00000000,0.0000000 {E-lon(deg),Lat(deg),Alt(km)}
Center cylindric: 0.00000000,0.00000000,0.0000000 {E-lon(deg),Dxy(km),Dz(km)}
Center radii    : 696000.0 x 696000.0 x 696000.0 k{Equator, meridian, pole}    
Output units    : KM-S                                                         
Output type     : GEOMETRIC cartesian states
Output format   : 3 (position, velocity, LT, range, range-rate)
Reference frame : ICRF/J2000.0                                                 
Coordinate systm: Ecliptic and Mean Equinox of Reference Epoch                 
*******************************************************************************
            JDTDB,            Calendar Date (TDB),                      X,                      Y,                      Z,                     VX,                     VY,                     VZ,                     LT,                     RG,                     RR,
**************************************************************************************************************************************************************************************************************************************************************************
$$SOE
2458376.500000000, A.D. 2018-Sep-15 00:00:00.0000,  2.090885477321097E+08, -1.491290877796129E+09,  1.783484052325499E+07,  1.747869966216188E+01,  3.939953848155765E-01, -6.738291893818882E-01,  5.023418333269575E+03,  1.505982929693149E+09,  2.028586452721501E+00,
2458377.500000000, A.D. 2018-Sep-16 00:00:00.0000,  2.104198338809990E+08, -1.490851731423670E+09,  1.758222792489696E+07,  1.121117097985361E+01,  8.513392212125790E+00, -4.325941257430151E+00,  5.022576526339996E+03,  1.505730562324569E+09, -6.913064481903189E+00,
2458378.500000000, A.D. 2018-Sep-17 00:00:00.0000,  2.109163050046763E+08, -1.490184574665713E+09,  1.728706240965438E+07,  1.386738409363453E+00,  4.792999373688684E+00, -1.495242744847597E+00,  5.020593521818166E+03,  1.505136072524745E+09, -4.568235704334981E+00,
2458379.500000000, A.D. 2018-Sep-18 00:00:00.0000,  2.110469980793951E+08, -1.490198750132895E+09,  1.737981170965779E+07,  4.144637282924785E+00, -4.624212970963264E+00,  3.155991467234244E+00,  5.020705006610813E+03,  1.505169494824762E+09,  5.195800347212931E+00,
2458380.500000000, A.D. 2018-Sep-19 00:00:00.0000,  2.118798514442844E+08, -1.490683427575976E+09,  1.765375756991655E+07,  1.493938671662743E+01, -4.288151976606975E+00,  2.002825999536125E+00,  5.022706431398834E+03,  1.505769506881465E+09,  6.370822018544582E+00,
2458381.500000000, A.D. 2018-Sep-20 00:00:00.0000,  2.133310361178597E+08, -1.490655628266119E+09,  1.760511682179338E+07,  1.606783411515367E+01,  5.271795260056216E+00, -3.070861931623465E+00,  5.023296166053121E+03,  1.505946304883041E+09, -2.978012193410808E+00,
2458382.500000000, A.D. 2018-Sep-21 00:00:00.0000,  2.143005752436462E+08, -1.489971723085139E+09,  1.725910718541890E+07,  5.648492961100359E+00,  8.361093601977894E+00, -3.728931252585217E+00,  5.021484069437074E+03,  1.505403051984383E+09, -7.514051309685015E+00,
2458383.500000000, A.D. 2018-Sep-22 00:00:00.0000,  2.144793760845478E+08, -1.489566255617943E+09,  1.713001915330374E+07,  8.179651255242095E-01, -8.908645370598944E-02,  1.108792321869856E+00,  5.020225483414469E+03,  1.505025737387062E+09,  2.173587139666296E-01,
2458384.500000000, A.D. 2018-Sep-23 00:00:00.0000,  2.148573316287019E+08, -1.489914279228246E+09,  1.737506915272528E+07,  9.481878952768135E+00, -6.178853849552971E+00,  3.492433350380095E+00,  5.021563589257398E+03,  1.505426891426777E+09,  7.508763876665112E+00,
2458385.500000000, A.D. 2018-Sep-24 00:00:00.0000,  2.160959070289304E+08, -1.490253993123968E+09,  1.753781874600333E+07,  1.743054936159671E+01,  7.689439652848717E-02, -4.819409500140600E-01,  5.023282551606997E+03,  1.505942223374774E+09,  2.419499196747711E+00,
2458386.500000000, A.D. 2018-Sep-25 00:00:00.0000,  2.174450658955949E+08, -1.489835758585409E+09,  1.729639647497076E+07,  1.160223215247527E+01,  8.443751155510411E+00, -4.302980190790414E+00,  5.022540619846547E+03,  1.505719797828640E+09, -6.728596076879219E+00,
2458387.500000000, A.D. 2018-Sep-26 00:00:00.0000,  2.179710192309258E+08, -1.489153854750497E+09,  1.699280072503906E+07,  1.562535159579769E+00,  5.161403158380158E+00, -1.680609531337352E+00,  5.020532273980260E+03,  1.505117710884871E+09, -4.899347232073144E+00,
2458388.500000000, A.D. 2018-Sep-27 00:00:00.0000,  2.180935926381952E+08, -1.489135362403989E+09,  1.707122858588082E+07,  3.810223901721555E+00, -4.345283274878614E+00,  3.063829157115150E+00,  5.020533432983717E+03,  1.505118058345366E+09,  4.885997939417768E+00,
2458389.500000000, A.D. 2018-Sep-28 00:00:00.0000,  2.188931752976222E+08, -1.489616169710323E+09,  1.734814173051411E+07,  1.462897564676295E+01, -4.477729069135088E+00,  2.152344471624579E+00,  5.022517806170051E+03,  1.505712958460487E+09,  6.581347179688096E+00,
2458390.500000000, A.D. 2018-Sep-29 00:00:00.0000,  2.203393984671610E+08, -1.489613130893563E+09,  1.731478437184125E+07,  1.628090451527630E+01,  4.999734067764724E+00, -2.926250595132771E+00,  5.023210067729430E+03,  1.505920493254952E+09, -2.597090767083092E+00,
2458391.500000000, A.D. 2018-Sep-30 00:00:00.0000,  2.213395185722000E+08, -1.488935251143788E+09,  1.697105732487607E+07,  6.021546863097053E+00,  8.532410653712356E+00, -3.829738315821709E+00,  5.021449760683901E+03,  1.505392766478939E+09, -7.596951226925124E+00,
2458392.500000000, A.D. 2018-Oct-01 00:00:00.0000,  2.215328564048009E+08, -1.488500610060554E+09,  1.682739518523383E+07,  7.230445570130114E-01,  3.168520262200346E-01,  9.286119936135786E-01,  5.020105316345586E+03,  1.504989712206111E+09, -1.965662521908388E-01,
2458393.500000000, A.D. 2018-Oct-02 00:00:00.0000,  2.218843417671079E+08, -1.488825885386375E+09,  1.706496231344330E+07,  9.063408269339460E+00, -6.130213069803809E+00,  3.527803150684666E+00,  5.021360030941644E+03,  1.505365866178951E+09,  7.438756490145656E+00,
2458394.500000000, A.D. 2018-Oct-03 00:00:00.0000,  2.230976769843721E+08, -1.489180135306653E+09,  1.723952442132407E+07,  1.735887583895681E+01, -2.385378734976620E-01, -2.887531185234079E-01,  5.023133336777698E+03,  1.505897489894328E+09,  2.804289667366559E+00,
2458395.500000000, A.D. 2018-Oct-04 00:00:00.0000,  2.244630424459581E+08, -1.488783783761214E+09,  1.700995026411539E+07,  1.198470904606998E+01,  8.352476601183977E+00, -4.268002250119795E+00,  5.022494143522744E+03,  1.505705864577288E+09, -6.520201720496756E+00,
2458396.500000000, A.D. 2018-Oct-05 00:00:00.0000,  2.250190885328540E+08, -1.488088882569955E+09,  1.669877422021854E+07,  1.757769653910432E+00,  5.517274585842953E+00, -1.861309827588809E+00,  5.020467602730900E+03,  1.505098322932064E+09, -5.212778940040007E+00,
2458397.500000000, A.D. 2018-Oct-06 00:00:00.0000,  2.251351577479540E+08, -1.488037723670908E+09,  1.676272691016227E+07,  3.487745821833239E+00, -4.056059823568460E+00,  2.965149595250786E+00,  5.020359154481715E+03,  1.505065810964875E+09,  4.564908840250267E+00,
2458398.500000000, A.D. 2018-Oct-07 00:00:00.0000,  2.259014989674051E+08, -1.488513603508745E+09,  1.704204926216382E+07,  1.430838487863546E+01, -4.657567524150515E+00,  2.297669688519056E+00,  5.022321915971635E+03,  1.505654232056406E+09,  6.777316460584647E+00,
2458399.500000000, A.D. 2018-Oct-08 00:00:00.0000,  2.273416022181435E+08, -1.488535236145214E+09,  1.702402992689449E+07,  1.648181327767448E+01,  4.719171442494164E+00, -2.776162934993373E+00,  5.023115528693077E+03,  1.505892151164867E+09, -2.207935420787819E+00,
2458400.500000000, A.D. 2018-Oct-09 00:00:00.0000,  2.283720721123102E+08, -1.487864708681128E+09,  1.668329115056455E+07,  6.404680482582743E+00,  8.685491735530775E+00, -3.922055251893548E+00,  5.021412253232785E+03,  1.505381522027975E+09, -7.656277892904085E+00,
2458401.500000000, A.D. 2018-Oct-10 00:00:00.0000,  2.285817609065751E+08, -1.487401701486224E+09,  1.652530268567395E+07,  6.537967179573689E-01,  7.268732673364924E-01,  7.438936499092934E-01,  5.019986178305286E+03,  1.504953995520168E+09, -6.109246292854486E-01,
2458402.500000000, A.D. 2018-Oct-11 00:00:00.0000,  2.289081102287365E+08, -1.487702869363913E+09,  1.675455372908896E+07,  8.645819925253939E+00, -6.059916474807139E+00,  3.551796802354888E+00,  5.021152928677727E+03,  1.505303778482194E+09,  7.343343155392654E+00,
